{
    "links": {
        "self": "http://www.neowsapp.com/rest/v1/neo/3799745?api_key=iIulBulltgU6a56xZRHN4H3l9WmuAYTsLGpBGhQ2"
    },
    "id": "3799745",
    "neo_reference_id": "3799745",
    "name": "(2018 DW1)",
    "designation": "2018 DW1",
    "nasa_jpl_url": "http://ssd.jpl.nasa.gov/sbdb.cgi?sstr=3799745",
    "absolute_magnitude_h": 26.8,
    "estimated_diameter": {
        "kilometers": {
            "estimated_diameter_min": 0.0116025908,
            "estimated_diameter_max": 0.0259441818
        },
        "meters": {
            "estimated_diameter_min": 11.6025908209,
            "estimated_diameter_max": 25.9441817907
        },
        "miles": {
            "estimated_diameter_min": 0.0072095135,
            "estimated_diameter_max": 0.0161209622
        },
        "feet": {
            "estimated_diameter_min": 38.066244069,
            "estimated_diameter_max": 85.1187093863
        }
    },
    "is_potentially_hazardous_asteroid": false,
    "close_approach_data": [
        {
            "close_approach_date": "2015-07-10",
            "close_approach_date_full": "2015-Jul-10 18:29",
            "epoch_date_close_approach": 1436552940000,
            "relative_velocity": {
                "kilometers_per_second": "25.3869773906",
                "kilometers_per_hour": "91393.1186060567",
                "miles_per_hour": "56788.1297249689"
            },
            "miss_distance": {
                "astronomical": "0.4584785889",
                "lunar": "178.3481710821",
                "kilometers": "68587420.340045643",
                "miles": "42618246.7649421534"
            },
            "orbiting_body": "Earth"
        },
        {
            "close_approach_date": "2018-02-28",
            "close_approach_date_full": "2018-Feb-28 18:48",
            "epoch_date_close_approach": 1519843680000,
            "relative_velocity": {
                "kilometers_per_second": "12.103114289",
                "kilometers_per_hour": "43571.211440418",
                "miles_per_hour": "27073.4563530753"
            },
            "miss_distance": {
                "astronomical": "0.0097238496",
                "lunar": "3.7825774944",
                "kilometers": "1454667.188360352",
                "miles": "903888.2769907776"
            },
            "orbiting_body": "Moon"
        },
        {
            "close_approach_date": "2018-03-01",
            "close_approach_date_full": "2018-Mar-01 00:14",
            "epoch_date_close_approach": 1519863240000,
            "relative_velocity": {
                "kilometers_per_second": "12.1663295531",
                "kilometers_per_hour": "43798.7863912244",
                "miles_per_hour": "27214.8625773694"
            },
            "miss_distance": {
                "astronomical": "0.0099326074",
                "lunar": "3.8637842786",
                "kilometers": "1485896.910586238",
                "miles": "923293.5265485644"
            },
            "orbiting_body": "Earth"
        }
    ],
    "orbital_data": {
        "orbit_id": "2",
        "orbit_determination_date": "2018-02-28 06:22:25",
        "first_observation_date": "2018-02-25",
        "last_observation_date": "2018-02-27",
        "data_arc_in_days": 2,
        "observations_used": 39,
        "orbit_uncertainty": "8",
        "minimum_orbit_intersection": ".00335565",
        "jupiter_tisserand_invariant": "3.618",
        "epoch_osculation": "2458175.5",
        "eccentricity": ".5607653734431394",
        "semi_major_axis": "2.009603804721042",
        "inclination": "1.08249537482147",
        "ascending_node_longitude": "351.5859518134881",
        "orbital_period": "1040.552730807759",
        "perihelion_distance": ".8826875766938931",
        "perihelion_argument": "215.5964202731076",
        "aphelion_distance": "3.13652003274819",
        "perihelion_time": "2458212.562641440072",
        "mean_anomaly": "347.1774389481748",
        "mean_motion": ".3459699728244813",
        "equinox": "J2000",
        "orbit_class": {
            "orbit_class_type": "APO",
            "orbit_class_description": "Near-Earth asteroid orbits which cross the Earth’s orbit similar to that of 1862 Apollo",
            "orbit_class_range": "a (semi-major axis) > 1.0 AU; q (perihelion) < 1.017 AU"
        }
    },
    "is_sentry_object": false
}